STARLINK-1661           
1 46355U 20062AG  26068.14213265  .00016603  00000+0  57075-3 0  9991
2 46355  53.1612  13.5256 0001035  95.5841 264.5278 15.30239796304316
ION SCV-017             
1 63230U 25052W   26068.71648816  .00006457  00000+0  24539-3 0  9998
2 63230  97.4016 324.7516 0023746  44.9875 315.3282 15.26881798 54851
